[Satellite]
VERSION=1.1
NAME=CENTAURI-2
NICKNAME=CENTAURI-2
TLE1=1 43722U 18096D   19316.85938432  .00002408  00000-0  93399-4 0  9995
TLE2=2 43722  97.4466  26.5056 0018403 166.5923 193.5809 15.26966561 53187
STATUS=0
